start=new Date('2023-05-31T00:00:00.000Z').valueOf();
sats=[{"NORAD_CAT_ID":"52140","EPOCH":"2023-05-30T20:16:54.017760","OBJECT_NAME":"STARLINK-3682","TLE_LINE1":"1 52140U 22029BE  23150.84506965 -.00000094  00000-0  12198-4 0  9990","CENTER_NAME":"EARTH","MEAN_MOTION_DOT":"-0.00000094","COUNTRY_CODE":"US","FILE":"3921192","OBJECT_ID":"2022-029BE","MEAN_MOTION_DDOT":"0.0000000000000","OBJECT_TYPE":"PAYLOAD","MEAN_MOTION":"15.08841974","INCLINATION":"53.2178","TIME_SYSTEM":"UTC","REV_AT_EPOCH":"6788","EPHEMERIS_TYPE":"0","ARG_OF_PERICENTER":"95.4652","APOAPSIS":"540.492","ECCENTRICITY":"0.00010880","RCS_SIZE":"LARGE","LAUNCH_DATE":"2022-03-19","CLASSIFICATION_TYPE":"U","SITE":"AFETR","BSTAR":"0.00001219800000","MEAN_ELEMENT_THEORY":"SGP4","SEMIMAJOR_AXIS":"6917.874","MEAN_ANOMALY":"264.6465","PERIAPSIS":"538.987","REF_FRAME":"TEME","ELEMENT_SET_NO":"999","GP_ID":"232853773","TLE_LINE2":"2 52140  53.2178 300.4403 0001088  95.4652 264.6465 15.08841974 67881","RA_OF_ASC_NODE":"300.4403","DECAY_DATE":null,"PERIOD":"95.437"},{"REF_FRAME":"TEME","PERIAPSIS":"539.175","SEMIMAJOR_AXIS":"6917.892","MEAN_ANOMALY":"264.6478","ELEMENT_SET_NO":"999","TLE_LINE2":"2 52261  53.2166 341.3624 0000841  95.4610 264.6478 15.08836143 61274","RA_OF_ASC_NODE":"341.3624","GP_ID":"232853781","PERIOD":"95.438","DECAY_DATE":null,"ECCENTRICITY":"0.00008410","RCS_SIZE":"LARGE","LAUNCH_DATE":"2022-04-21","BSTAR":"0.00005273200000","CLASSIFICATION_TYPE":"U","SITE":"AFETR","MEAN_ELEMENT_THEORY":"SGP4","INCLINATION":"53.2166","MEAN_MOTION":"15.08836143","OBJECT_TYPE":"PAYLOAD","TIME_SYSTEM":"UTC","ARG_OF_PERICENTER":"95.4610","REV_AT_EPOCH":"6127","EPHEMERIS_TYPE":"0","APOAPSIS":"540.339","NORAD_CAT_ID":"52261","TLE_LINE1":"1 52261U 22041A   23150.64363076  .00000552  00000-0  52732-4 0  9996","OBJECT_NAME":"STARLINK-3810","EPOCH":"2023-05-30T15:26:49.697664","MEAN_MOTION_DOT":"0.00000552","CENTER_NAME":"EARTH","OBJECT_ID":"2022-041A","MEAN_MOTION_DDOT":"0.0000000000000","COUNTRY_CODE":"US","FILE":"3921192"},{"NORAD_CAT_ID":"52262","EPOCH":"2023-05-30T15:25:26.440032","OBJECT_NAME":"STARLINK-3761","TLE_LINE1":"1 52262U 22041B   23150.64266713  .00000886  00000-0  73771-4 0  9993","CENTER_NAME":"EARTH","MEAN_MOTION_DOT":"0.00000886","COUNTRY_CODE":"US","FILE":"3921192","OBJECT_ID":"2022-041B","MEAN_MOTION_DDOT":"0.0000000000000","MEAN_MOTION":"15.08838965","OBJECT_TYPE":"PAYLOAD","INCLINATION":"53.2168","TIME_SYSTEM":"UTC","EPHEMERIS_TYPE":"0","REV_AT_EPOCH":"6127","ARG_OF_PERICENTER":"98.7446","APOAPSIS":"540.414","ECCENTRICITY":"0.00009620","RCS_SIZE":"LARGE","LAUNCH_DATE":"2022-04-21","CLASSIFICATION_TYPE":"U","SITE":"AFETR","BSTAR":"0.00007377100000","MEAN_ELEMENT_THEORY":"SGP4","SEMIMAJOR_AXIS":"6917.884","MEAN_ANOMALY":"261.3655","PERIAPSIS":"539.083","REF_FRAME":"TEME","ELEMENT_SET_NO":"999","GP_ID":"232855033","TLE_LINE2":"2 52262  53.2168 341.3078 0000962  98.7446 261.3655 15.08838965 61272","RA_OF_ASC_NODE":"341.3078","PERIOD":"95.438","DECAY_DATE":null},{"REV_AT_EPOCH":"6131","EPHEMERIS_TYPE":"0","ARG_OF_PERICENTER":"85.9725","APOAPSIS":"540.483","MEAN_MOTION":"15.08845640","OBJECT_TYPE":"PAYLOAD","INCLINATION":"53.2175","TIME_SYSTEM":"UTC","CENTER_NAME":"EARTH","MEAN_MOTION_DOT":"0.00000949","COUNTRY_CODE":"US","FILE":"3921192","OBJECT_ID":"2022-041C","MEAN_MOTION_DDOT":"0.0000000000000","NORAD_CAT_ID":"52263","EPOCH":"2023-05-30T21:52:17.103648","TLE_LINE1":"1 52263U 22041C   23150.91130907  .00000949  00000-0  77711-4 0  9997","OBJECT_NAME":"STARLINK-3786","GP_ID":"232854783","TLE_LINE2":"2 52263  53.2175 340.1476 0001091  85.9725 274.1392 15.08845640 61315","RA_OF_ASC_NODE":"340.1476","DECAY_DATE":null,"PERIOD":"95.437","SEMIMAJOR_AXIS":"6917.863","MEAN_ANOMALY":"274.1392","PERIAPSIS":"538.973","REF_FRAME":"TEME","ELEMENT_SET_NO":"999","CLASSIFICATION_TYPE":"U","SITE":"AFETR","BSTAR":"0.00007771100000","MEAN_ELEMENT_THEORY":"SGP4","ECCENTRICITY":"0.00010910","RCS_SIZE":"LARGE","LAUNCH_DATE":"2022-04-21"},{"LAUNCH_DATE":"2022-04-21","RCS_SIZE":"LARGE","ECCENTRICITY":"0.00009140","MEAN_ELEMENT_THEORY":"SGP4","SITE":"AFETR","CLASSIFICATION_TYPE":"U","BSTAR":"0.00008174500000","ELEMENT_SET_NO":"999","MEAN_ANOMALY":"263.5632","SEMIMAJOR_AXIS":"6917.870","PERIAPSIS":"539.102","REF_FRAME":"TEME","DECAY_DATE":null,"PERIOD":"95.437","GP_ID":"232854032","RA_OF_ASC_NODE":"340.4783","TLE_LINE2":"2 52264  53.2167 340.4783 0000914  96.5465 263.5632 15.08843502 61306","EPOCH":"2023-05-30T20:06:18.076608","OBJECT_NAME":"STARLINK-3795","TLE_LINE1":"1 52264U 22041D   23150.83770922  .00001014  00000-0  81745-4 0  9992","NORAD_CAT_ID":"52264","FILE":"3921192","COUNTRY_CODE":"US","MEAN_MOTION_DDOT":"0.0000000000000","OBJECT_ID":"2022-041D","CENTER_NAME":"EARTH","MEAN_MOTION_DOT":"0.00001014","TIME_SYSTEM":"UTC","OBJECT_TYPE":"PAYLOAD","MEAN_MOTION":"15.08843502","INCLINATION":"53.2167","APOAPSIS":"540.367","EPHEMERIS_TYPE":"0","REV_AT_EPOCH":"6130","ARG_OF_PERICENTER":"96.5465"},{"RCS_SIZE":"LARGE","LAUNCH_DATE":"2022-04-21","ECCENTRICITY":"0.00010100","MEAN_ELEMENT_THEORY":"SGP4","CLASSIFICATION_TYPE":"U","SITE":"AFETR","BSTAR":"0.00006970900000","ELEMENT_SET_NO":"999","SEMIMAJOR_AXIS":"6917.870","MEAN_ANOMALY":"263.8120","PERIAPSIS":"539.037","REF_FRAME":"TEME","PERIOD":"95.437","DECAY_DATE":null,"GP_ID":"232854282","TLE_LINE2":"2 52265  53.2177 340.4951 0001010  96.2988 263.8120 15.08843297 61306","RA_OF_ASC_NODE":"340.4951","EPOCH":"2023-05-30T20:01:00.303456","OBJECT_NAME":"STARLINK-3740","TLE_LINE1":"1 52265U 22041E   23150.83403129  .00000822  00000-0  69709-4 0  9997","NORAD_CAT_ID":"52265","COUNTRY_CODE":"US","FILE":"3921192","OBJECT_ID":"2022-041E","MEAN_MOTION_DDOT":"0.0000000000000","CENTER_NAME":"EARTH","MEAN_MOTION_DOT":"0.00000822","TIME_SYSTEM":"UTC","OBJECT_TYPE":"PAYLOAD","MEAN_MOTION":"15.08843297","INCLINATION":"53.2177","APOAPSIS":"540.434","EPHEMERIS_TYPE":"0","REV_AT_EPOCH":"6130","ARG_OF_PERICENTER":"96.2988"},{"APOAPSIS":"540.183","ARG_OF_PERICENTER":"78.6697","REV_AT_EPOCH":"6130","EPHEMERIS_TYPE":"0","TIME_SYSTEM":"UTC","INCLINATION":"53.2174","MEAN_MOTION":"15.08842048","OBJECT_TYPE":"PAYLOAD","MEAN_MOTION_DDOT":"0.0000000000000","OBJECT_ID":"2022-041F","FILE":"3921192","COUNTRY_CODE":"US","MEAN_MOTION_DOT":"0.00000694","CENTER_NAME":"EARTH","OBJECT_NAME":"STARLINK-3739","TLE_LINE1":"1 52266U 22041F   23150.83034822  .00000694  00000-0  61650-4 0  9992","EPOCH":"2023-05-30T19:55:42.086208","NORAD_CAT_ID":"52266","DECAY_DATE":null,"PERIOD":"95.437","RA_OF_ASC_NODE":"340.5118","TLE_LINE2":"2 52266  53.2174 340.5118 0000642  78.6697 281.4367 15.08842048 61303","GP_ID":"232854533","ELEMENT_SET_NO":"999","PERIAPSIS":"539.295","REF_FRAME":"TEME","MEAN_ANOMALY":"281.4367","SEMIMAJOR_AXIS":"6917.874","MEAN_ELEMENT_THEORY":"SGP4","BSTAR":"0.00006165000000","SITE":"AFETR","CLASSIFICATION_TYPE":"U","LAUNCH_DATE":"2022-04-21","RCS_SIZE":"LARGE","ECCENTRICITY":"0.00006420"},{"NORAD_CAT_ID":"52267","TLE_LINE1":"1 52267U 22041G   23150.82667445  .00006230  00000-0  40942-3 0  9997","OBJECT_NAME":"STARLINK-3748","EPOCH":"2023-05-30T19:50:24.672480","MEAN_MOTION_DOT":"0.00006230","CENTER_NAME":"EARTH","MEAN_MOTION_DDOT":"0.0000000000000","OBJECT_ID":"2022-041G","FILE":"3921192","COUNTRY_CODE":"US","INCLINATION":"53.2174","OBJECT_TYPE":"PAYLOAD","MEAN_MOTION":"15.08818798","TIME_SYSTEM":"UTC","ARG_OF_PERICENTER":"88.2769","EPHEMERIS_TYPE":"0","REV_AT_EPOCH":"6130","APOAPSIS":"540.582","ECCENTRICITY":"0.00011160","LAUNCH_DATE":"2022-04-21","RCS_SIZE":"LARGE","BSTAR":"0.00040942000000","SITE":"AFETR","CLASSIFICATION_TYPE":"U","MEAN_ELEMENT_THEORY":"SGP4","REF_FRAME":"TEME","PERIAPSIS":"539.038","MEAN_ANOMALY":"271.8351","SEMIMAJOR_AXIS":"6917.945","ELEMENT_SET_NO":"999","RA_OF_ASC_NODE":"340.5280","TLE_LINE2":"2 52267  53.2174 340.5280 0001116  88.2769 271.8351 15.08818798 61309","GP_ID":"232855284","DECAY_DATE":null,"PERIOD":"95.439"},{"ECCENTRICITY":"0.00010100","RCS_SIZE":"LARGE","LAUNCH_DATE":"2022-04-21","CLASSIFICATION_TYPE":"U","SITE":"AFETR","BSTAR":"0.00006737200000","MEAN_ELEMENT_THEORY":"SGP4","SEMIMAJOR_AXIS":"6917.866","MEAN_ANOMALY":"265.9360","REF_FRAME":"TEME","PERIAPSIS":"539.033","ELEMENT_SET_NO":"999","GP_ID":"232853532","TLE_LINE2":"2 52268  53.2161 340.5820 0001010  94.1748 265.9360 15.08844565 61307","RA_OF_ASC_NODE":"340.5820","DECAY_DATE":null,"PERIOD":"95.437","NORAD_CAT_ID":"52268","EPOCH":"2023-05-30T19:35:53.087424","TLE_LINE1":"1 52268U 22041H   23150.81658666  .00000785  00000-0  67372-4 0  9998","OBJECT_NAME":"STARLINK-3746","CENTER_NAME":"EARTH","MEAN_MOTION_DOT":"0.00000785","COUNTRY_CODE":"US","FILE":"3921192","OBJECT_ID":"2022-041H","MEAN_MOTION_DDOT":"0.0000000000000","OBJECT_TYPE":"PAYLOAD","MEAN_MOTION":"15.08844565","INCLINATION":"53.2161","TIME_SYSTEM":"UTC","REV_AT_EPOCH":"6130","EPHEMERIS_TYPE":"0","ARG_OF_PERICENTER":"94.1748","APOAPSIS":"540.430"},{"REV_AT_EPOCH":"6130","EPHEMERIS_TYPE":"0","ARG_OF_PERICENTER":"86.0457","APOAPSIS":"540.375","OBJECT_TYPE":"PAYLOAD","MEAN_MOTION":"15.08848808","INCLINATION":"53.2180","TIME_SYSTEM":"UTC","CENTER_NAME":"EARTH","MEAN_MOTION_DOT":"0.00001018","FILE":"3921192","COUNTRY_CODE":"US","MEAN_MOTION_DDOT":"0.0000000000000","OBJECT_ID":"2022-041J","NORAD_CAT_ID":"52269","EPOCH":"2023-05-30T19:45:05.973984","OBJECT_NAME":"STARLINK-3791","TLE_LINE1":"1 52269U 22041J   23150.82298581  .00001018  00000-0  82022-4 0  9995","GP_ID":"232853782","RA_OF_ASC_NODE":"340.5435","TLE_LINE2":"2 52269  53.2180 340.5435 0000949  86.0457 274.0643 15.08848808 61307","DECAY_DATE":null,"PERIOD":"95.437","MEAN_ANOMALY":"274.0643","SEMIMAJOR_AXIS":"6917.853","REF_FRAME":"TEME","PERIAPSIS":"539.062","ELEMENT_SET_NO":"999","SITE":"AFETR","CLASSIFICATION_TYPE":"U","BSTAR":"0.00008202200000","MEAN_ELEMENT_THEORY":"SGP4","ECCENTRICITY":"0.00009490","LAUNCH_DATE":"2022-04-21","RCS_SIZE":"LARGE"}];
